{
  "type": "FeatureCollection",
  "features": [
    {
      "type": "Feature",
      "properties": {
        "norad_id": 66580,
        "name": "STARLINK-35872",
        "group": "last-30-days",
        "lat": 35.39154772250982,
        "lon": -97.63947409109169,
        "alt_km": 410.37727529759013,
        "timestamp": "2025-12-10T20:49:51.345216+00:00",
        "meta_object_name": "STARLINK-35872",
        "meta_object_id": "2025-268Z",
        "meta_epoch": "2025-12-10T14:00:03.000384",
        "meta_mean_motion": 15.50609552,
        "meta_eccentricity": 0.00016325,
        "meta_inclination": 43.0002,
        "meta_ra_of_asc_node": 133.7013,
        "meta_arg_of_pericenter": 265.7033,
        "meta_mean_anomaly": 65.6052,
        "meta_ephemeris_type": 0,
        "meta_classification_type": "U",
        "meta_norad_cat_id": 66580,
        "meta_element_set_no": 999,
        "meta_rev_at_epoch": 432,
        "meta_bstar": -0.0015946075,
        "meta_mean_motion_dot": -0.0009289,
        "meta_mean_motion_ddot": 0,
        "tle_line1": "1 66580U 25268Z   25344.58336806 -.00092890  00000+0 -15946-2 0  9991",
        "tle_line2": "2 66580  43.0002 133.7013 0001632 265.7033  65.6052 15.50609552  4323"
      },
      "geometry": {
        "type": "Point",
        "coordinates": [
          -97.63947409109169,
          35.39154772250982
        ]
      }
    },
    {
      "type": "Feature",
      "properties": {
        "norad_id": 66581,
        "name": "STARLINK-35744",
        "group": "last-30-days",
        "lat": 34.50944989845093,
        "lon": -95.51464534875343,
        "alt_km": 410.46651258942165,
        "timestamp": "2025-12-10T20:49:51.345229+00:00",
        "meta_object_name": "STARLINK-35744",
        "meta_object_id": "2025-268AA",
        "meta_epoch": "2025-12-10T14:00:03.000384",
        "meta_mean_motion": 15.50599265,
        "meta_eccentricity": 0.0001484,
        "meta_inclination": 43.0002,
        "meta_ra_of_asc_node": 133.6948,
        "meta_arg_of_pericenter": 263.6962,
        "meta_mean_anomaly": 69.5848,
        "meta_ephemeris_type": 0,
        "meta_classification_type": "U",
        "meta_norad_cat_id": 66581,
        "meta_element_set_no": 999,
        "meta_rev_at_epoch": 427,
        "meta_bstar": -0.0020284542,
        "meta_mean_motion_dot": -0.00117656,
        "meta_mean_motion_ddot": 0,
        "tle_line1": "1 66581U 25268AA  25344.58336806 -.00117656  00000+0 -20285-2 0  9992",
        "tle_line2": "2 66581  43.0002 133.6948 0001484 263.6962  69.5848 15.50599265  4272"
      },
      "geometry": {
        "type": "Point",
        "coordinates": [
          -95.51464534875343,
          34.50944989845093
        ]
      }
    },
    {
      "type": "Feature",
      "properties": {
        "norad_id": 66582,
        "name": "STARLINK-35746",
        "group": "last-30-days",
        "lat": 33.625773957041915,
        "lon": -93.51004043441289,
        "alt_km": 410.6915162983323,
        "timestamp": "2025-12-10T20:49:51.345239+00:00",
        "meta_object_name": "STARLINK-35746",
        "meta_object_id": "2025-268AB",
        "meta_epoch": "2025-12-10T14:00:03.000384",
        "meta_mean_motion": 15.50625328,
        "meta_eccentricity": 0.00017278,
        "meta_inclination": 43.0002,
        "meta_ra_of_asc_node": 133.6902,
        "meta_arg_of_pericenter": 266.944,
        "meta_mean_anomaly": 68.1958,
        "meta_ephemeris_type": 0,
        "meta_classification_type": "U",
        "meta_norad_cat_id": 66582,
        "meta_element_set_no": 999,
        "meta_rev_at_epoch": 432,
        "meta_bstar": -0.0021483207,
        "meta_mean_motion_dot": -0.00124597,
        "meta_mean_motion_ddot": 0,
        "tle_line1": "1 66582U 25268AB  25344.58336806 -.00124597  00000+0 -21483-2 0  9996",
        "tle_line2": "2 66582  43.0002 133.6902 0001727 266.9440  68.1958 15.50625328  4323"
      },
      "geometry": {
        "type": "Point",
        "coordinates": [
          -93.51004043441289,
          33.625773957041915
        ]
      }
    },
    {
      "type": "Feature",
      "properties": {
        "norad_id": 66583,
        "name": "STARLINK-35941",
        "group": "last-30-days",
        "lat": 32.695424479600746,
        "lon": -91.51638225858512,
        "alt_km": 410.82111367936886,
        "timestamp": "2025-12-10T20:49:51.345249+00:00",
        "meta_object_name": "STARLINK-35941",
        "meta_object_id": "2025-268AC",
        "meta_epoch": "2025-12-10T14:00:03.000384",
        "meta_mean_motion": 15.50590492,
        "meta_eccentricity": 0.0001723,
        "meta_inclination": 42.9999,
        "meta_ra_of_asc_node": 133.6856,
        "meta_arg_of_pericenter": 268.755,
        "meta_mean_anomaly": 68.3119,
        "meta_ephemeris_type": 0,
        "meta_classification_type": "U",
        "meta_norad_cat_id": 66583,
        "meta_element_set_no": 999,
        "meta_rev_at_epoch": 432,
        "meta_bstar": -0.00095223256,
        "meta_mean_motion_dot": -0.00055832,
        "meta_mean_motion_ddot": 0,
        "tle_line1": "1 66583U 25268AC  25344.58336806 -.00055832  00000+0 -95223-3 0  9996",
        "tle_line2": "2 66583  42.9999 133.6856 0001723 268.7550  68.3119 15.50590492  4327"
      },
      "geometry": {
        "type": "Point",
        "coordinates": [
          -91.51638225858512,
          32.695424479600746
        ]
      }
    },
    {
      "type": "Feature",
      "properties": {
        "norad_id": 66584,
        "name": "STARLINK-35939",
        "group": "last-30-days",
        "lat": 31.72756692088424,
        "lon": -89.55080295652631,
        "alt_km": 410.9115884645653,
        "timestamp": "2025-12-10T20:49:51.345259+00:00",
        "meta_object_name": "STARLINK-35939",
        "meta_object_id": "2025-268AD",
        "meta_epoch": "2025-12-10T14:00:03.000384",
        "meta_mean_motion": 15.50631564,
        "meta_eccentricity": 0.00016838,
        "meta_inclination": 43.0001,
        "meta_ra_of_asc_node": 133.6811,
        "meta_arg_of_pericenter": 265.7029,
        "meta_mean_anomaly": 73.2722,
        "meta_ephemeris_type": 0,
        "meta_classification_type": "U",
        "meta_norad_cat_id": 66584,
        "meta_element_set_no": 999,
        "meta_rev_at_epoch": 432,
        "meta_bstar": -0.0023615815,
        "meta_mean_motion_dot": -0.00136751,
        "meta_mean_motion_ddot": 0,
        "tle_line1": "1 66584U 25268AD  25344.58336806 -.00136751  00000+0 -23616-2 0  9993",
        "tle_line2": "2 66584  43.0001 133.6811 0001683 265.7029  73.2722 15.50631564  4329"
      },
      "geometry": {
        "type": "Point",
        "coordinates": [
          -89.55080295652631,
          31.72756692088424
        ]
      }
    },
    {
      "type": "Feature",
      "properties": {
        "norad_id": 66585,
        "name": "STARLINK-35963",
        "group": "last-30-days",
        "lat": 30.735002918475953,
        "lon": -87.63616251749481,
        "alt_km": 410.91202579262153,
        "timestamp": "2025-12-10T20:49:51.345268+00:00",
        "meta_object_name": "STARLINK-35963",
        "meta_object_id": "2025-268AE",
        "meta_epoch": "2025-12-10T14:00:03.000384",
        "meta_mean_motion": 15.50628916,
        "meta_eccentricity": 0.00014717,
        "meta_inclination": 43.0002,
        "meta_ra_of_asc_node": 133.6765,
        "meta_arg_of_pericenter": 263.5252,
        "meta_mean_anomaly": 77.3658,
        "meta_ephemeris_type": 0,
        "meta_classification_type": "U",
        "meta_norad_cat_id": 66585,
        "meta_element_set_no": 999,
        "meta_rev_at_epoch": 432,
        "meta_bstar": -0.0022573412,
        "meta_mean_motion_dot": -0.00130813,
        "meta_mean_motion_ddot": 0,
        "tle_line1": "1 66585U 25268AE  25344.58336806 -.00130813  00000+0 -22573-2 0  9998",
        "tle_line2": "2 66585  43.0002 133.6765 0001471 263.5252  77.3658 15.50628916  4328"
      },
      "geometry": {
        "type": "Point",
        "coordinates": [
          -87.63616251749481,
          30.735002918475953
        ]
      }
    },
    {
      "type": "Feature",
      "properties": {
        "norad_id": 66586,
        "name": "TJS-21",
        "group": "last-30-days",
        "lat": 58.519806070139396,
        "lon": -142.05100639276571,
        "alt_km": 34440.47510555054,
        "timestamp": "2025-12-10T20:49:51.345280+00:00",
        "meta_object_name": "TJS-21",
        "meta_object_id": "2025-269A",
        "meta_epoch": "2025-12-09T17:35:27.978144",
        "meta_mean_motion": 2.00565752,
        "meta_eccentricity": 0.68056573,
        "meta_inclination": 63.268,
        "meta_ra_of_asc_node": 162.6671,
        "meta_arg_of_pericenter": 269.7843,
        "meta_mean_anomaly": 18.6559,
        "meta_ephemeris_type": 0,
        "meta_classification_type": "U",
        "meta_norad_cat_id": 66586,
        "meta_element_set_no": 999,
        "meta_rev_at_epoch": 37,
        "meta_bstar": -0.041606579,
        "meta_mean_motion_dot": 1.08e-05,
        "meta_mean_motion_ddot": 0,
        "tle_line1": "1 66586U 25269A   25343.73296271  .00001080  00000+0 -41607-1 0  9997",
        "tle_line2": "2 66586  63.2680 162.6671 6805657 269.7843  18.6559  2.00565752   379"
      },
      "geometry": {
        "type": "Point",
        "coordinates": [
          -142.05100639276571,
          58.519806070139396
        ]
      }
    }
  ]
}